CCSDS_OMM_VERS = 2.0
CREATION_DATE  = 
ORIGINATOR     = 

OBJECT_NAME    = ATLAS CENTAUR 2
OBJECT_ID      = 1963-047A
CENTER_NAME    = EARTH
REF_FRAME      = TEME
TIME_SYSTEM    = UTC
MEAN_ELEMENT_THEORY = SGP/SGP4

EPOCH          = 2026-02-28T05:08:35.588256
MEAN_MOTION    = 14.12035118
ECCENTRICITY   = .0547926
INCLINATION    = 30.3537
RA_OF_ASC_NODE = 248.5977
ARG_OF_PERICENTER = 356.7781
MEAN_ANOMALY   = 2.9374

EPHEMERIS_TYPE = 0
CLASSIFICATION_TYPE = U
NORAD_CAT_ID   = 694
ELEMENT_SET_NO = 999
REV_AT_EPOCH   = 13028
BSTAR          = .16279E-3
MEAN_MOTION_DOT = .1425E-4
MEAN_MOTION_DDOT = 0

CCSDS_OMM_VERS = 2.0
CREATION_DATE  = 
ORIGINATOR     = 

OBJECT_NAME    = THOR AGENA D R/B
OBJECT_ID      = 1964-002A
CENTER_NAME    = EARTH
REF_FRAME      = TEME
TIME_SYSTEM    = UTC
MEAN_ELEMENT_THEORY = SGP/SGP4

EPOCH          = 2026-02-28T10:50:18.589056
MEAN_MOTION    = 14.34013698
ECCENTRICITY   = .0031917
INCLINATION    = 99.1228
RA_OF_ASC_NODE = 72.2857
ARG_OF_PERICENTER = 285.8711
MEAN_ANOMALY   = 73.8955

EPHEMERIS_TYPE = 0
CLASSIFICATION_TYPE = U
NORAD_CAT_ID   = 733
ELEMENT_SET_NO = 999
REV_AT_EPOCH   = 23697
BSTAR          = .10723E-3
MEAN_MOTION_DOT = .252E-5
MEAN_MOTION_DDOT = 0

CCSDS_OMM_VERS = 2.0
CREATION_DATE  = 
ORIGINATOR     = 

OBJECT_NAME    = SL-3 R/B
OBJECT_ID      = 1964-053B
CENTER_NAME    = EARTH
REF_FRAME      = TEME
TIME_SYSTEM    = UTC
MEAN_ELEMENT_THEORY = SGP/SGP4

EPOCH          = 2026-02-28T05:57:03.801024
MEAN_MOTION    = 14.61357414
ECCENTRICITY   = .0079328
INCLINATION    = 65.0786
RA_OF_ASC_NODE = 358.9165
ARG_OF_PERICENTER = 295.2249
MEAN_ANOMALY   = 64.0643

EPHEMERIS_TYPE = 0
CLASSIFICATION_TYPE = U
NORAD_CAT_ID   = 877
ELEMENT_SET_NO = 999
REV_AT_EPOCH   = 26541
BSTAR          = .1014E-3
MEAN_MOTION_DOT = .399E-5
MEAN_MOTION_DDOT = 0

CCSDS_OMM_VERS = 2.0
CREATION_DATE  = 
ORIGINATOR     = 

OBJECT_NAME    = SL-8 R/B
OBJECT_ID      = 1967-045B
CENTER_NAME    = EARTH
REF_FRAME      = TEME
TIME_SYSTEM    = UTC
MEAN_ELEMENT_THEORY = SGP/SGP4

EPOCH          = 2026-02-28T07:14:46.120416
MEAN_MOTION    = 14.45611675
ECCENTRICITY   = .0063814
INCLINATION    = 74.0132
RA_OF_ASC_NODE = 5.6192
ARG_OF_PERICENTER = 14.1376
MEAN_ANOMALY   = 346.1548

EPHEMERIS_TYPE = 0
CLASSIFICATION_TYPE = U
NORAD_CAT_ID   = 2802
ELEMENT_SET_NO = 999
REV_AT_EPOCH   = 8766
BSTAR          = .14894E-3
MEAN_MOTION_DOT = .511E-5
MEAN_MOTION_DDOT = 0

CCSDS_OMM_VERS = 2.0
CREATION_DATE  = 
ORIGINATOR     = 

OBJECT_NAME    = SL-8 R/B
OBJECT_ID      = 1968-040B
CENTER_NAME    = EARTH
REF_FRAME      = TEME
TIME_SYSTEM    = UTC
MEAN_ELEMENT_THEORY = SGP/SGP4

EPOCH          = 2026-02-28T11:00:48.437280
MEAN_MOTION    = 15.03182041
ECCENTRICITY   = .0024299
INCLINATION    = 74.0338
RA_OF_ASC_NODE = 332.5531
ARG_OF_PERICENTER = 159.2630
MEAN_ANOMALY   = 200.9550

EPHEMERIS_TYPE = 0
CLASSIFICATION_TYPE = U
NORAD_CAT_ID   = 3230
ELEMENT_SET_NO = 999
REV_AT_EPOCH   = 8862
BSTAR          = .22851E-3
MEAN_MOTION_DOT = .3067E-4
MEAN_MOTION_DDOT = 0

CCSDS_OMM_VERS = 2.0
CREATION_DATE  = 
ORIGINATOR     = 

OBJECT_NAME    = OAO 2
OBJECT_ID      = 1968-110A
CENTER_NAME    = EARTH
REF_FRAME      = TEME
TIME_SYSTEM    = UTC
MEAN_ELEMENT_THEORY = SGP/SGP4

EPOCH          = 2026-02-28T09:37:05.645856
MEAN_MOTION    = 14.47301133
ECCENTRICITY   = .0004992
INCLINATION    = 34.9941
RA_OF_ASC_NODE = 317.0864
ARG_OF_PERICENTER = 128.5072
MEAN_ANOMALY   = 231.6067

EPHEMERIS_TYPE = 0
CLASSIFICATION_TYPE = U
NORAD_CAT_ID   = 3597
ELEMENT_SET_NO = 999
REV_AT_EPOCH   = 1775
BSTAR          = .84969E-4
MEAN_MOTION_DOT = .296E-5
MEAN_MOTION_DDOT = 0

CCSDS_OMM_VERS = 2.0
CREATION_DATE  = 
ORIGINATOR     = 

OBJECT_NAME    = ISIS 1
OBJECT_ID      = 1969-009A
CENTER_NAME    = EARTH
REF_FRAME      = TEME
TIME_SYSTEM    = UTC
MEAN_ELEMENT_THEORY = SGP/SGP4

EPOCH          = 2026-02-28T12:21:47.007360
MEAN_MOTION    = 11.30410759
ECCENTRICITY   = .1707844
INCLINATION    = 88.4552
RA_OF_ASC_NODE = 156.3086
ARG_OF_PERICENTER = 107.6711
MEAN_ANOMALY   = 271.7516

EPHEMERIS_TYPE = 0
CLASSIFICATION_TYPE = U
NORAD_CAT_ID   = 3669
ELEMENT_SET_NO = 999
REV_AT_EPOCH   = 34749
BSTAR          = .10511E-3
MEAN_MOTION_DOT = .171E-5
MEAN_MOTION_DDOT = 0

CCSDS_OMM_VERS = 2.0
CREATION_DATE  = 
ORIGINATOR     = 

OBJECT_NAME    = SERT 2
OBJECT_ID      = 1970-009A
CENTER_NAME    = EARTH
REF_FRAME      = TEME
TIME_SYSTEM    = UTC
MEAN_ELEMENT_THEORY = SGP/SGP4

EPOCH          = 2026-02-28T10:19:14.285280
MEAN_MOTION    = 13.58728955
ECCENTRICITY   = .0004687
INCLINATION    = 99.2746
RA_OF_ASC_NODE = 3.0309
ARG_OF_PERICENTER = 178.8295
MEAN_ANOMALY   = 289.8594

EPHEMERIS_TYPE = 0
CLASSIFICATION_TYPE = U
NORAD_CAT_ID   = 4327
ELEMENT_SET_NO = 999
REV_AT_EPOCH   = 77863
BSTAR          = .58939E-4
MEAN_MOTION_DOT = .2E-7
MEAN_MOTION_DDOT = 0

CCSDS_OMM_VERS = 2.0
CREATION_DATE  = 
ORIGINATOR     = 

OBJECT_NAME    = SL-3 R/B
OBJECT_ID      = 1971-028B
CENTER_NAME    = EARTH
REF_FRAME      = TEME
TIME_SYSTEM    = UTC
MEAN_ELEMENT_THEORY = SGP/SGP4

EPOCH          = 2026-02-28T11:42:20.805984
MEAN_MOTION    = 15.60240915
ECCENTRICITY   = .0014675
INCLINATION    = 81.2333
RA_OF_ASC_NODE = 63.3887
ARG_OF_PERICENTER = 324.5164
MEAN_ANOMALY   = 35.5111

EPHEMERIS_TYPE = 0
CLASSIFICATION_TYPE = U
NORAD_CAT_ID   = 5118
ELEMENT_SET_NO = 999
REV_AT_EPOCH   = 98723
BSTAR          = .45964E-3
MEAN_MOTION_DOT = .37795E-3
MEAN_MOTION_DDOT = 0

CCSDS_OMM_VERS = 2.0
CREATION_DATE  = 
ORIGINATOR     = 

OBJECT_NAME    = ASTEX 1
OBJECT_ID      = 1971-089A
CENTER_NAME    = EARTH
REF_FRAME      = TEME
TIME_SYSTEM    = UTC
MEAN_ELEMENT_THEORY = SGP/SGP4

EPOCH          = 2026-02-28T12:15:35.064864
MEAN_MOTION    = 14.50758000
ECCENTRICITY   = .0017779
INCLINATION    = 92.7133
RA_OF_ASC_NODE = 148.7911
ARG_OF_PERICENTER = 112.9126
MEAN_ANOMALY   = 247.3959

EPHEMERIS_TYPE = 0
CLASSIFICATION_TYPE = U
NORAD_CAT_ID   = 5560
ELEMENT_SET_NO = 999
REV_AT_EPOCH   = 86097
BSTAR          = .14866E-3
MEAN_MOTION_DOT = .585E-5
MEAN_MOTION_DDOT = 0

CCSDS_OMM_VERS = 2.0
CREATION_DATE  = 
ORIGINATOR     = 

OBJECT_NAME    = SL-8 R/B
OBJECT_ID      = 1971-119B
CENTER_NAME    = EARTH
REF_FRAME      = TEME
TIME_SYSTEM    = UTC
MEAN_ELEMENT_THEORY = SGP/SGP4

EPOCH          = 2026-02-28T11:19:53.599296
MEAN_MOTION    = 14.37556524
ECCENTRICITY   = .0550594
INCLINATION    = 73.8864
RA_OF_ASC_NODE = 192.9430
ARG_OF_PERICENTER = 161.4916
MEAN_ANOMALY   = 200.7179

EPHEMERIS_TYPE = 0
CLASSIFICATION_TYPE = U
NORAD_CAT_ID   = 5730
ELEMENT_SET_NO = 999
REV_AT_EPOCH   = 65416
BSTAR          = .86554E-3
MEAN_MOTION_DOT = .16684E-3
MEAN_MOTION_DDOT = 0

CCSDS_OMM_VERS = 2.0
CREATION_DATE  = 
ORIGINATOR     = 

OBJECT_NAME    = OAO 3 (COPERNICUS)
OBJECT_ID      = 1972-065A
CENTER_NAME    = EARTH
REF_FRAME      = TEME
TIME_SYSTEM    = UTC
MEAN_ELEMENT_THEORY = SGP/SGP4

EPOCH          = 2026-02-28T12:34:16.491072
MEAN_MOTION    = 14.59988773
ECCENTRICITY   = .0005909
INCLINATION    = 35.0070
RA_OF_ASC_NODE = 349.5364
ARG_OF_PERICENTER = 85.9707
MEAN_ANOMALY   = 80.3895

EPHEMERIS_TYPE = 0
CLASSIFICATION_TYPE = U
NORAD_CAT_ID   = 6153
ELEMENT_SET_NO = 999
REV_AT_EPOCH   = 84485
BSTAR          = .91688E-4
MEAN_MOTION_DOT = .425E-5
MEAN_MOTION_DDOT = 0

