ATLAS CENTAUR 2         
1 00694U 63047A   26059.21430079  .00001425  00000+0  16279-3 0  9996
2 00694  30.3537 248.5977 0547926 356.7781   2.9374 14.12035118130289
THOR AGENA D R/B        
1 00733U 64002A   26059.45160404  .00000252  00000+0  10723-3 0  9995
2 00733  99.1228  72.2857 0031917 285.8711  73.8955 14.34013698236973
SL-3 R/B                
1 00877U 64053B   26059.24796066  .00000399  00000+0  10140-3 0  9991
2 00877  65.0786 358.9165 0079328 295.2249  64.0643 14.61357414265412
SL-8 R/B                
1 02802U 67045B   26059.30192269  .00000511  00000+0  14894-3 0  9993
2 02802  74.0132   5.6192 0063814  14.1376 346.1548 14.45611675 87666
SL-8 R/B                
1 03230U 68040B   26059.45889395  .00003067  00000+0  22851-3 0  9995
2 03230  74.0338 332.5531 0024299 159.2630 200.9550 15.03182041 88629
OAO 2                   
1 03597U 68110A   26059.40075979  .00000296  00000+0  84969-4 0  9999
2 03597  34.9941 317.0864 0004992 128.5072 231.6067 14.47301133 17756
ISIS 1                  
1 03669U 69009A   26059.51512740  .00000171  00000+0  10511-3 0  9994
2 03669  88.4552 156.3086 1707844 107.6711 271.7516 11.30410759347498
SERT 2                  
1 04327U 70009A   26059.43002645  .00000002  00000+0  58939-4 0  9997
2 04327  99.2746   3.0309 0004687 178.8295 289.8594 13.58728955778634
SL-3 R/B                
1 05118U 71028B   26059.48774081  .00037795  00000+0  45964-3 0  9995
2 05118  81.2333  63.3887 0014675 324.5164  35.5111 15.60240915987238
ASTEX 1                 
1 05560U 71089A   26059.51082251  .00000585  00000+0  14866-3 0  9992
2 05560  92.7133 148.7911 0017779 112.9126 247.3959 14.50758000860976
SL-8 R/B                
1 05730U 71119B   26059.47214814  .00016684  00000+0  86554-3 0  9992
2 05730  73.8864 192.9430 0550594 161.4916 200.7179 14.37556524654167
OAO 3 (COPERNICUS)      
1 06153U 72065A   26059.52380198  .00000425  00000+0  91688-4 0  9999
2 06153  35.0070 349.5364 0005909  85.9707  80.3895 14.59988773844858
